{
  "type": "FeatureCollection",
  "features": [
    {
      "type": "Feature",
      "properties": {
        "norad_id": 66625,
        "name": "STARLINK-35929",
        "group": "last-30-days",
        "lat": -44.97382934157125,
        "lon": 105.85859431313644,
        "alt_km": 447.87597398001526,
        "timestamp": "2025-12-19T14:48:34.964294+00:00",
        "meta_object_name": "STARLINK-35929",
        "meta_object_id": "2025-271J",
        "meta_epoch": "2025-12-19T08:00:01.999872",
        "meta_mean_motion": 15.4278059,
        "meta_eccentricity": 0.00017388,
        "meta_inclination": 53.1586,
        "meta_ra_of_asc_node": 155.7107,
        "meta_arg_of_pericenter": 104.503,
        "meta_mean_anomaly": 57.6013,
        "meta_ephemeris_type": 0,
        "meta_classification_type": "U",
        "meta_norad_cat_id": 66625,
        "meta_element_set_no": 999,
        "meta_rev_at_epoch": 530,
        "meta_bstar": -0.059212253,
        "meta_mean_motion_dot": -0.02346418,
        "meta_mean_motion_ddot": 0,
        "tle_line1": "1 66625U 25271J   25353.33335648 -.02346418  00000+0 -59212-1 0  9994",
        "tle_line2": "2 66625  53.1586 155.7107 0001738 104.5030  57.6013 15.42780590  5304"
      },
      "geometry": {
        "type": "Point",
        "coordinates": [
          105.85859431313644,
          -44.97382934157125
        ]
      }
    },
    {
      "type": "Feature",
      "properties": {
        "norad_id": 66626,
        "name": "STARLINK-35902",
        "group": "last-30-days",
        "lat": -32.156700824010606,
        "lon": 2.640590191437448,
        "alt_km": 451.8770917831189,
        "timestamp": "2025-12-19T14:48:34.964304+00:00",
        "meta_object_name": "STARLINK-35902",
        "meta_object_id": "2025-271K",
        "meta_epoch": "2025-12-19T08:00:01.999872",
        "meta_mean_motion": 15.3958686,
        "meta_eccentricity": 0.00014433,
        "meta_inclination": 53.1602,
        "meta_ra_of_asc_node": 155.8573,
        "meta_arg_of_pericenter": 87.0141,
        "meta_mean_anomaly": 1.1938,
        "meta_ephemeris_type": 0,
        "meta_classification_type": "U",
        "meta_norad_cat_id": 66626,
        "meta_element_set_no": 999,
        "meta_rev_at_epoch": 530,
        "meta_bstar": 0.001606007,
        "meta_mean_motion_dot": 0.00064313,
        "meta_mean_motion_ddot": 0,
        "tle_line1": "1 66626U 25271K   25353.33335648  .00064313  00000+0  16060-2 0  9997",
        "tle_line2": "2 66626  53.1602 155.8573 0001443  87.0141   1.1938 15.39586860  5303"
      },
      "geometry": {
        "type": "Point",
        "coordinates": [
          2.640590191437448,
          -32.156700824010606
        ]
      }
    },
    {
      "type": "Feature",
      "properties": {
        "norad_id": 66627,
        "name": "STARLINK-35904",
        "group": "last-30-days",
        "lat": -53.02734410246096,
        "lon": 69.58779533025417,
        "alt_km": 452.67166469410677,
        "timestamp": "2025-12-19T14:48:34.964315+00:00",
        "meta_object_name": "STARLINK-35904",
        "meta_object_id": "2025-271L",
        "meta_epoch": "2025-12-19T08:00:01.999872",
        "meta_mean_motion": 15.39576137,
        "meta_eccentricity": 8.897e-05,
        "meta_inclination": 53.159,
        "meta_ra_of_asc_node": 155.7551,
        "meta_arg_of_pericenter": 84.9735,
        "meta_mean_anomaly": 54.7504,
        "meta_ephemeris_type": 0,
        "meta_classification_type": "U",
        "meta_norad_cat_id": 66627,
        "meta_element_set_no": 999,
        "meta_rev_at_epoch": 514,
        "meta_bstar": 0.0017785987,
        "meta_mean_motion_dot": 0.00071307,
        "meta_mean_motion_ddot": 0,
        "tle_line1": "1 66627U 25271L   25353.33335648  .00071307  00000+0  17786-2 0  9995",
        "tle_line2": "2 66627  53.1590 155.7551 0000889  84.9735  54.7504 15.39576137  5144"
      },
      "geometry": {
        "type": "Point",
        "coordinates": [
          69.58779533025417,
          -53.02734410246096
        ]
      }
    },
    {
      "type": "Feature",
      "properties": {
        "norad_id": 66628,
        "name": "STARLINK-35862",
        "group": "last-30-days",
        "lat": -23.612528664978804,
        "lon": 135.1714196889095,
        "alt_km": 421.9254172863575,
        "timestamp": "2025-12-19T14:48:34.964325+00:00",
        "meta_object_name": "STARLINK-35862",
        "meta_object_id": "2025-271M",
        "meta_epoch": "2025-12-18T21:54:35.856864",
        "meta_mean_motion": 15.49385884,
        "meta_eccentricity": 9.597e-05,
        "meta_inclination": 53.1591,
        "meta_ra_of_asc_node": 157.6722,
        "meta_arg_of_pericenter": 75.8715,
        "meta_mean_anomaly": 284.24,
        "meta_ephemeris_type": 0,
        "meta_classification_type": "U",
        "meta_norad_cat_id": 66628,
        "meta_element_set_no": 999,
        "meta_rev_at_epoch": 516,
        "meta_bstar": 0.00078885762,
        "meta_mean_motion_dot": 0.0004379,
        "meta_mean_motion_ddot": 0,
        "tle_line1": "1 66628U 25271M   25352.91291501  .00043790  00000+0  78886-3 0  9992",
        "tle_line2": "2 66628  53.1591 157.6722 0000959  75.8715 284.2400 15.49385884  5167"
      },
      "geometry": {
        "type": "Point",
        "coordinates": [
          135.1714196889095,
          -23.612528664978804
        ]
      }
    },
    {
      "type": "Feature",
      "properties": {
        "norad_id": 66629,
        "name": "STARLINK-35956",
        "group": "last-30-days",
        "lat": -21.624301488276068,
        "lon": 137.0089349152259,
        "alt_km": 421.4759284087604,
        "timestamp": "2025-12-19T14:48:34.964335+00:00",
        "meta_object_name": "STARLINK-35956",
        "meta_object_id": "2025-271N",
        "meta_epoch": "2025-12-18T16:00:00.999936",
        "meta_mean_motion": 15.49463337,
        "meta_eccentricity": 5.424e-05,
        "meta_inclination": 53.1591,
        "meta_ra_of_asc_node": 158.846,
        "meta_arg_of_pericenter": 63.7637,
        "meta_mean_anomaly": 4.4961,
        "meta_ephemeris_type": 0,
        "meta_classification_type": "U",
        "meta_norad_cat_id": 66629,
        "meta_element_set_no": 999,
        "meta_rev_at_epoch": 519,
        "meta_bstar": 0.0002238515,
        "meta_mean_motion_dot": 0.00012088,
        "meta_mean_motion_ddot": 0,
        "tle_line1": "1 66629U 25271N   25352.66667824  .00012088  00000+0  22385-3 0  9999",
        "tle_line2": "2 66629  53.1591 158.8460 0000542  63.7637   4.4961 15.49463337  5194"
      },
      "geometry": {
        "type": "Point",
        "coordinates": [
          137.0089349152259,
          -21.624301488276068
        ]
      }
    },
    {
      "type": "Feature",
      "properties": {
        "norad_id": 66630,
        "name": "STARLINK-35949",
        "group": "last-30-days",
        "lat": -20.912353355732595,
        "lon": 137.64811421131125,
        "alt_km": 422.08979531646764,
        "timestamp": "2025-12-19T14:48:34.964349+00:00",
        "meta_object_name": "STARLINK-35949",
        "meta_object_id": "2025-271P",
        "meta_epoch": "2025-12-19T07:10:57.369504",
        "meta_mean_motion": 15.49270928,
        "meta_eccentricity": 5.879e-05,
        "meta_inclination": 53.1594,
        "meta_ra_of_asc_node": 155.8155,
        "meta_arg_of_pericenter": 87.9845,
        "meta_mean_anomaly": 272.1232,
        "meta_ephemeris_type": 0,
        "meta_classification_type": "U",
        "meta_norad_cat_id": 66630,
        "meta_element_set_no": 999,
        "meta_rev_at_epoch": 522,
        "meta_bstar": 0.00099825389,
        "meta_mean_motion_dot": 0.0005539,
        "meta_mean_motion_ddot": 0,
        "tle_line1": "1 66630U 25271P   25353.29927511  .00055390  00000+0  99825-3 0  9999",
        "tle_line2": "2 66630  53.1594 155.8155 0000587  87.9845 272.1232 15.49270928  5226"
      },
      "geometry": {
        "type": "Point",
        "coordinates": [
          137.64811421131125,
          -20.912353355732595
        ]
      }
    },
    {
      "type": "Feature",
      "properties": {
        "norad_id": 66631,
        "name": "STARLINK-35965",
        "group": "last-30-days",
        "lat": -19.416227761010656,
        "lon": 138.9688916003145,
        "alt_km": 422.0360331431548,
        "timestamp": "2025-12-19T14:48:34.964359+00:00",
        "meta_object_name": "STARLINK-35965",
        "meta_object_id": "2025-271Q",
        "meta_epoch": "2025-12-19T08:00:01.999872",
        "meta_mean_motion": 15.49256689,
        "meta_eccentricity": 0.0001084,
        "meta_inclination": 53.1585,
        "meta_ra_of_asc_node": 155.6495,
        "meta_arg_of_pericenter": 83.3252,
        "meta_mean_anomaly": 108.9379,
        "meta_ephemeris_type": 0,
        "meta_classification_type": "U",
        "meta_norad_cat_id": 66631,
        "meta_element_set_no": 999,
        "meta_rev_at_epoch": 530,
        "meta_bstar": 0.0014864167,
        "meta_mean_motion_dot": 0.00082949,
        "meta_mean_motion_ddot": 0,
        "tle_line1": "1 66631U 25271Q   25353.33335648  .00082949  00000+0  14864-2 0  9998",
        "tle_line2": "2 66631  53.1585 155.6495 0001084  83.3252 108.9379 15.49256689  5302"
      },
      "geometry": {
        "type": "Point",
        "coordinates": [
          138.9688916003145,
          -19.416227761010656
        ]
      }
    }
  ]
}